STARLINK-5934           
1 56017U 23042AH  24008.44999067  .00000155  00000+0  26529-4 0  9990
2 56017  43.0040  22.7950 0001117 265.9519  94.1196 15.02540433 44032
STARLINK-5945           
1 56018U 23042AJ  24009.10589556  .00000268  00000+0  34935-4 0  9998
2 56018  43.0044  19.1162 0001120 272.9039  87.1675 15.02533019 44475
STARLINK-5949           
1 56019U 23042AK  24009.11809985  .00004359  00000+0  33761-3 0  9991
2 56019  43.0028  19.2089 0001538 263.4955  96.5713 15.02527574 44478
STARLINK-5912           
1 56020U 23042AL  24009.10922588 -.00000106  00000+0  72055-5 0  9995
2 56020  43.0048  19.1427 0001116 267.7615  92.3099 15.02533132 44477
STARLINK-5907           
1 56021U 23042AM  24009.11144478 -.00000220  00000+0 -12423-5 0  9992
2 56021  43.0044  19.1587 0001111 266.7669  93.3047 15.02533164 44473
STARLINK-5783           
1 56022U 23042AN  24009.09479216  .00001054  00000+0  93044-4 0  9992
2 56022  43.0036  19.0294 0000955 262.2281  97.8453 15.02536409 44470
STARLINK-5771           
1 56023U 23042AP  24009.10034336  .00000810  00000+0  75057-4 0  9998
2 56023  43.0035  19.0743 0001234 266.5249  93.5453 15.02535516 44472
STARLINK-5772           
1 56024U 23042AQ  24008.42113561  .00000225  00000+0  31748-4 0  9990
2 56024  43.0034  22.5745 0001004 260.6965  99.3764 15.02536014 44033
STARLINK-5766           
1 56025U 23042AR  24009.12920008  .00000164  00000+0  27230-4 0  9994
2 56025  43.0038  19.2808 0001220 267.2140  92.8563 15.02538047 44470
STARLINK-5770           
1 56026U 23042AS  24009.09146361  .00000410  00000+0  45403-4 0  9999
2 56026  43.0038  19.0045 0001129 269.8554  90.2159 15.02534456 44470
STARLINK-5777           
1 56027U 23042AT  24008.36575611 -.00000137  00000+0  49644-5 0  9992
2 56027  43.0037  23.0206 0001153 267.3443  92.7267 15.02538170 44363
STARLINK-5779           
1 56028U 23042AU  24008.41558415  .00000209  00000+0  30522-4 0  9995
2 56028  43.0034  22.5325 0001164 263.0221  97.0489 15.02536251 44032
STARLINK-5774           
1 56029U 23042AV  24009.08924469 -.00001080  00000+0 -64884-4 0  9994
2 56029  43.0036  18.9874 0001245 263.4714  96.5987 15.02532673 44473
STARLINK-5781           
1 56030U 23042AW  24008.47873245  .00001983  00000+0  16181-3 0  9999
2 56030  43.0042  22.1489 0001192 271.3197  88.7509 15.02542698 44386
STARLINK-5785           
1 56031U 23042AX  24009.14906328 -.00000466  00000+0 -19399-4 0  9996
2 56031  43.0042  18.5767 0001124 260.4175  99.6540 15.02536851 44486
STARLINK-5786           
1 56032U 23042AY  24009.13463057  .00000085  00000+0  21376-4 0  9996
2 56032  43.0038  18.4675 0001112 260.1693  99.9024 15.02539093 44489
STARLINK-5784           
1 56033U 23042AZ  24008.40670813  .00000308  00000+0  37861-4 0  9990
2 56033  43.0045  22.4679 0000843 265.3972  94.6774 15.02535839 44033
