[{"OBJECT_NAME":"STARLINK-5934","OBJECT_ID":"2023-042AH","EPOCH":"2024-01-08T10:47:59.193888","MEAN_MOTION":15.02540433,"ECCENTRICITY":0.0001117,"INCLINATION":43.004,"RA_OF_ASC_NODE":22.795,"ARG_OF_PERICENTER":265.9519,"MEAN_ANOMALY":94.1196,"EPHEMERIS_TYPE":0,"CLASSIFICATION_TYPE":"U","NORAD_CAT_ID":56017,"ELEMENT_SET_NO":999,"REV_AT_EPOCH":4403,"BSTAR":2.6529e-5,"MEAN_MOTION_DOT":1.55e-6,"MEAN_MOTION_DDOT":0},{"OBJECT_NAME":"STARLINK-5945","OBJECT_ID":"2023-042AJ","EPOCH":"2024-01-09T02:32:29.376384","MEAN_MOTION":15.02533019,"ECCENTRICITY":0.000112,"INCLINATION":43.0044,"RA_OF_ASC_NODE":19.1162,"ARG_OF_PERICENTER":272.9039,"MEAN_ANOMALY":87.1675,"EPHEMERIS_TYPE":0,"CLASSIFICATION_TYPE":"U","NORAD_CAT_ID":56018,"ELEMENT_SET_NO":999,"REV_AT_EPOCH":4447,"BSTAR":3.4935e-5,"MEAN_MOTION_DOT":2.68e-6,"MEAN_MOTION_DDOT":0},{"OBJECT_NAME":"STARLINK-5949","OBJECT_ID":"2023-042AK","EPOCH":"2024-01-09T02:50:03.827040","MEAN_MOTION":15.02527574,"ECCENTRICITY":0.0001538,"INCLINATION":43.0028,"RA_OF_ASC_NODE":19.2089,"ARG_OF_PERICENTER":263.4955,"MEAN_ANOMALY":96.5713,"EPHEMERIS_TYPE":0,"CLASSIFICATION_TYPE":"U","NORAD_CAT_ID":56019,"ELEMENT_SET_NO":999,"REV_AT_EPOCH":4447,"BSTAR":0.00033761,"MEAN_MOTION_DOT":4.359e-5,"MEAN_MOTION_DDOT":0},{"OBJECT_NAME":"STARLINK-5912","OBJECT_ID":"2023-042AL","EPOCH":"2024-01-09T02:37:17.116032","MEAN_MOTION":15.02533132,"ECCENTRICITY":0.0001116,"INCLINATION":43.0048,"RA_OF_ASC_NODE":19.1427,"ARG_OF_PERICENTER":267.7615,"MEAN_ANOMALY":92.3099,"EPHEMERIS_TYPE":0,"CLASSIFICATION_TYPE":"U","NORAD_CAT_ID":56020,"ELEMENT_SET_NO":999,"REV_AT_EPOCH":4447,"BSTAR":7.2055e-6,"MEAN_MOTION_DOT":-1.06e-6,"MEAN_MOTION_DDOT":0},{"OBJECT_NAME":"STARLINK-5907","OBJECT_ID":"2023-042AM","EPOCH":"2024-01-09T02:40:28.828992","MEAN_MOTION":15.02533164,"ECCENTRICITY":0.0001111,"INCLINATION":43.0044,"RA_OF_ASC_NODE":19.1587,"ARG_OF_PERICENTER":266.7669,"MEAN_ANOMALY":93.3047,"EPHEMERIS_TYPE":0,"CLASSIFICATION_TYPE":"U","NORAD_CAT_ID":56021,"ELEMENT_SET_NO":999,"REV_AT_EPOCH":4447,"BSTAR":-1.2423e-6,"MEAN_MOTION_DOT":-2.2e-6,"MEAN_MOTION_DDOT":0},{"OBJECT_NAME":"STARLINK-5783","OBJECT_ID":"2023-042AN","EPOCH":"2024-01-09T02:16:30.042624","MEAN_MOTION":15.02536409,"ECCENTRICITY":9.55e-5,"INCLINATION":43.0036,"RA_OF_ASC_NODE":19.0294,"ARG_OF_PERICENTER":262.2281,"MEAN_ANOMALY":97.8453,"EPHEMERIS_TYPE":0,"CLASSIFICATION_TYPE":"U","NORAD_CAT_ID":56022,"ELEMENT_SET_NO":999,"REV_AT_EPOCH":4447,"BSTAR":9.3044e-5,"MEAN_MOTION_DOT":1.054e-5,"MEAN_MOTION_DDOT":0},{"OBJECT_NAME":"STARLINK-5771","OBJECT_ID":"2023-042AP","EPOCH":"2024-01-09T02:24:29.666304","MEAN_MOTION":15.02535516,"ECCENTRICITY":0.0001234,"INCLINATION":43.0035,"RA_OF_ASC_NODE":19.0743,"ARG_OF_PERICENTER":266.5249,"MEAN_ANOMALY":93.5453,"EPHEMERIS_TYPE":0,"CLASSIFICATION_TYPE":"U","NORAD_CAT_ID":56023,"ELEMENT_SET_NO":999,"REV_AT_EPOCH":4447,"BSTAR":7.5057e-5,"MEAN_MOTION_DOT":8.1e-6,"MEAN_MOTION_DDOT":0},{"OBJECT_NAME":"STARLINK-5772","OBJECT_ID":"2023-042AQ","EPOCH":"2024-01-08T10:06:26.116704","MEAN_MOTION":15.02536014,"ECCENTRICITY":0.0001004,"INCLINATION":43.0034,"RA_OF_ASC_NODE":22.5745,"ARG_OF_PERICENTER":260.6965,"MEAN_ANOMALY":99.3764,"EPHEMERIS_TYPE":0,"CLASSIFICATION_TYPE":"U","NORAD_CAT_ID":56024,"ELEMENT_SET_NO":999,"REV_AT_EPOCH":4403,"BSTAR":3.1748e-5,"MEAN_MOTION_DOT":2.25e-6,"MEAN_MOTION_DDOT":0},{"OBJECT_NAME":"STARLINK-5766","OBJECT_ID":"2023-042AR","EPOCH":"2024-01-09T03:06:02.886912","MEAN_MOTION":15.02538047,"ECCENTRICITY":0.000122,"INCLINATION":43.0038,"RA_OF_ASC_NODE":19.2808,"ARG_OF_PERICENTER":267.214,"MEAN_ANOMALY":92.8563,"EPHEMERIS_TYPE":0,"CLASSIFICATION_TYPE":"U","NORAD_CAT_ID":56025,"ELEMENT_SET_NO":999,"REV_AT_EPOCH":4447,"BSTAR":2.723e-5,"MEAN_MOTION_DOT":1.64e-6,"MEAN_MOTION_DDOT":0},{"OBJECT_NAME":"STARLINK-5770","OBJECT_ID":"2023-042AS","EPOCH":"2024-01-09T02:11:42.455904","MEAN_MOTION":15.02534456,"ECCENTRICITY":0.0001129,"INCLINATION":43.0038,"RA_OF_ASC_NODE":19.0045,"ARG_OF_PERICENTER":269.8554,"MEAN_ANOMALY":90.2159,"EPHEMERIS_TYPE":0,"CLASSIFICATION_TYPE":"U","NORAD_CAT_ID":56026,"ELEMENT_SET_NO":999,"REV_AT_EPOCH":4447,"BSTAR":4.5403e-5,"MEAN_MOTION_DOT":4.1e-6,"MEAN_MOTION_DDOT":0},{"OBJECT_NAME":"STARLINK-5777","OBJECT_ID":"2023-042AT","EPOCH":"2024-01-08T08:46:41.327904","MEAN_MOTION":15.0253817,"ECCENTRICITY":0.0001153,"INCLINATION":43.0037,"RA_OF_ASC_NODE":23.0206,"ARG_OF_PERICENTER":267.3443,"MEAN_ANOMALY":92.7267,"EPHEMERIS_TYPE":0,"CLASSIFICATION_TYPE":"U","NORAD_CAT_ID":56027,"ELEMENT_SET_NO":999,"REV_AT_EPOCH":4436,"BSTAR":4.9644e-6,"MEAN_MOTION_DOT":-1.37e-6,"MEAN_MOTION_DDOT":0},{"OBJECT_NAME":"STARLINK-5779","OBJECT_ID":"2023-042AU","EPOCH":"2024-01-08T09:58:26.470560","MEAN_MOTION":15.02536251,"ECCENTRICITY":0.0001164,"INCLINATION":43.0034,"RA_OF_ASC_NODE":22.5325,"ARG_OF_PERICENTER":263.0221,"MEAN_ANOMALY":97.0489,"EPHEMERIS_TYPE":0,"CLASSIFICATION_TYPE":"U","NORAD_CAT_ID":56028,"ELEMENT_SET_NO":999,"REV_AT_EPOCH":4403,"BSTAR":3.0522e-5,"MEAN_MOTION_DOT":2.09e-6,"MEAN_MOTION_DDOT":0},{"OBJECT_NAME":"STARLINK-5774","OBJECT_ID":"2023-042AV","EPOCH":"2024-01-09T02:08:30.741216","MEAN_MOTION":15.02532673,"ECCENTRICITY":0.0001245,"INCLINATION":43.0036,"RA_OF_ASC_NODE":18.9874,"ARG_OF_PERICENTER":263.4714,"MEAN_ANOMALY":96.5987,"EPHEMERIS_TYPE":0,"CLASSIFICATION_TYPE":"U","NORAD_CAT_ID":56029,"ELEMENT_SET_NO":999,"REV_AT_EPOCH":4447,"BSTAR":-6.4884e-5,"MEAN_MOTION_DOT":-1.08e-5,"MEAN_MOTION_DDOT":0},{"OBJECT_NAME":"STARLINK-5781","OBJECT_ID":"2023-042AW","EPOCH":"2024-01-08T11:29:22.483680","MEAN_MOTION":15.02542698,"ECCENTRICITY":0.0001192,"INCLINATION":43.0042,"RA_OF_ASC_NODE":22.1489,"ARG_OF_PERICENTER":271.3197,"MEAN_ANOMALY":88.7509,"EPHEMERIS_TYPE":0,"CLASSIFICATION_TYPE":"U","NORAD_CAT_ID":56030,"ELEMENT_SET_NO":999,"REV_AT_EPOCH":4438,"BSTAR":0.00016181,"MEAN_MOTION_DOT":1.983e-5,"MEAN_MOTION_DDOT":0},{"OBJECT_NAME":"STARLINK-5785","OBJECT_ID":"2023-042AX","EPOCH":"2024-01-09T03:34:39.067392","MEAN_MOTION":15.02536851,"ECCENTRICITY":0.0001124,"INCLINATION":43.0042,"RA_OF_ASC_NODE":18.5767,"ARG_OF_PERICENTER":260.4175,"MEAN_ANOMALY":99.654,"EPHEMERIS_TYPE":0,"CLASSIFICATION_TYPE":"U","NORAD_CAT_ID":56031,"ELEMENT_SET_NO":999,"REV_AT_EPOCH":4448,"BSTAR":-1.9399e-5,"MEAN_MOTION_DOT":-4.66e-6,"MEAN_MOTION_DDOT":0},{"OBJECT_NAME":"STARLINK-5786","OBJECT_ID":"2023-042AY","EPOCH":"2024-01-09T03:13:52.081248","MEAN_MOTION":15.02539093,"ECCENTRICITY":0.0001112,"INCLINATION":43.0038,"RA_OF_ASC_NODE":18.4675,"ARG_OF_PERICENTER":260.1693,"MEAN_ANOMALY":99.9024,"EPHEMERIS_TYPE":0,"CLASSIFICATION_TYPE":"U","NORAD_CAT_ID":56032,"ELEMENT_SET_NO":999,"REV_AT_EPOCH":4448,"BSTAR":2.1376e-5,"MEAN_MOTION_DOT":8.5e-7,"MEAN_MOTION_DDOT":0},{"OBJECT_NAME":"STARLINK-5784","OBJECT_ID":"2023-042AZ","EPOCH":"2024-01-08T09:45:39.582432","MEAN_MOTION":15.02535839,"ECCENTRICITY":8.43e-5,"INCLINATION":43.0045,"RA_OF_ASC_NODE":22.4679,"ARG_OF_PERICENTER":265.3972,"MEAN_ANOMALY":94.6774,"EPHEMERIS_TYPE":0,"CLASSIFICATION_TYPE":"U","NORAD_CAT_ID":56033,"ELEMENT_SET_NO":999,"REV_AT_EPOCH":4403,"BSTAR":3.7861e-5,"MEAN_MOTION_DOT":3.08e-6,"MEAN_MOTION_DDOT":0}]
